NORAD_CAT_ID,OBJECT_NAME,OBJECT_TYPE,EPOCH,MEAN_MOTION,ECCENTRICITY,INCLINATION,RA_OF_ASC_NODE,ARG_OF_PERICENTER,MEAN_ANOMALY,BSTAR,MEAN_MOTION_DOT,MEAN_MOTION_DDOT,TLE_LINE0,TLE_LINE1,TLE_LINE2,SEMIMAJOR_AXIS,PERIOD,APOGEE,PERIGEE,DECAYED
54093.0,STARLINK-5213,PAYLOAD,2023-02-17 02:54:10,15.08838749,0.0001694,53.2173,306.343,68.2747,291.8426,-3.1485e-05,-7.89e-06,0.0,0 STARLINK-5213,1 54093U 22136AU  23048.12095427 -.00000789  00000-0 -31485-4 0  9993,2 54093  53.2173 306.3430 0001694  68.2747 291.8426 15.08838749 18898,6917.884,95.438,540.921,538.577,0.0
54093.0,STARLINK-5213,PAYLOAD,2023-02-17 17:12:39,15.08821431,0.0001222,53.2173,303.6691,65.1953,294.9166,-0.00012474,-2.271e-05,0.0,0 STARLINK-5213,1 54093U 22136AU  23048.71712640 -.00002271  00000-0 -12474-3 0  9995,2 54093  53.2173 303.6691 0001222  65.1953 294.9166 15.08821431 18984,6917.937,95.439,540.648,538.957,0.0
54093.0,STARLINK-5213,PAYLOAD,2023-02-17 20:23:26,15.08824166,0.000175,53.2158,303.0775,60.2947,299.8219,-0.00018124,-3.17e-05,0.0,0 STARLINK-5213,1 54093U 22136AU  23048.84960754 -.00003170  00000-0 -18124-3 0  9997,2 54093  53.2158 303.0775 0001750  60.2947 299.8219 15.08824166 18531,6917.929,95.439,541.004,538.583,0.0
54093.0,STARLINK-5213,PAYLOAD,2023-02-17 23:34:11,15.08830325,0.0001369,53.2163,302.4794,78.7424,281.3722,-0.00017602,-3.087e-05,0.0,0 STARLINK-5213,1 54093U 22136AU  23048.98208322 -.00003087  00000-0 -17602-3 0  9995,2 54093  53.2163 302.4794 0001369  78.7424 281.3722 15.08830325 19025,6917.91,95.438,540.722,538.828,0.0
54093.0,STARLINK-5213,PAYLOAD,2023-02-18 23:24:58,15.0884874,0.0001491,53.2163,298.0197,65.6751,294.4397,0.00048867,7.5e-05,0.0,0 STARLINK-5213,1 54093U 22136AU  23049.97567908  .00007500  00000-0  48867-3 0  9992,2 54093  53.2163 298.0197 0001491  65.6751 294.4397 15.08848740 19175,6917.854,95.437,540.75,538.687,0.0
54093.0,STARLINK-5213,PAYLOAD,2023-02-19 23:15:45,15.08847665,0.0001209,53.2161,293.5595,75.4785,284.6341,0.00016653,2.364e-05,0.0,0 STARLINK-5213,1 54093U 22136AU  23050.96927718  .00002364  00000-0  16653-3 0  9993,2 54093  53.2161 293.5595 0001209  75.4785 284.6341 15.08847665 19320,6917.857,95.437,540.558,538.886,0.0
54093.0,STARLINK-5213,PAYLOAD,2023-02-20 08:48:04,15.0883832,4.76e-05,53.2165,291.7766,115.4986,244.6055,-0.00017037,-2.998e-05,0.0,0 STARLINK-5213,1 54093U 22136AU  23051.36671397 -.00002998  00000-0 -17037-3 0  9999,2 54093  53.2165 291.7766 0000476 115.4986 244.6055 15.08838320 19389,6917.886,95.438,540.08,539.421,0.0
54093.0,STARLINK-5213,PAYLOAD,2023-02-21 03:52:41,15.08855683,0.0001207,53.216,288.2052,83.3782,276.7348,0.00040443,6.157e-05,0.0,0 STARLINK-5213,1 54093U 22136AU  23052.16159079  .00006157  00000-0  40443-3 0  9992,2 54093  53.2160 288.2052 0001207  83.3782 276.7348 15.08855683 19509,6917.832,95.437,540.532,538.862,0.0
54093.0,STARLINK-5213,PAYLOAD,2023-02-21 08:38:51,15.08841959,0.0001487,53.2152,287.3136,84.4104,275.7058,0.00032739,4.927e-05,0.0,0 STARLINK-5213,1 54093U 22136AU  23052.36031647  .00004927  00000-0  32739-3 0  9996,2 54093  53.2152 287.3136 0001487  84.4104 275.7058 15.08841959 19534,6917.874,95.437,540.768,538.711,0.0
54093.0,STARLINK-5213,PAYLOAD,2023-02-21 21:21:56,15.08837607,0.0001039,53.2149,284.9344,83.1126,276.9984,8.2427e-06,-1.57e-06,0.0,0 STARLINK-5213,1 54093U 22136AU  23052.89023636 -.00000157  00000-0  82427-5 0  9996,2 54093  53.2149 284.9344 0001039  83.1126 276.9984 15.08837607 19140,6917.888,95.438,540.471,539.034,0.0
54093.0,STARLINK-5213,PAYLOAD,2023-02-22 02:08:05,15.08837408,0.0001145,53.2158,284.0421,85.4974,274.6148,-1.8281e-05,-5.79e-06,0.0,0 STARLINK-5213,1 54093U 22136AU  23053.08895817 -.00000579  00000-0 -18281-4 0  9991,2 54093  53.2158 284.0421 0001145  85.4974 274.6148 15.08837408 19642,6917.888,95.438,540.545,538.961,0.0
54093.0,STARLINK-5213,PAYLOAD,2023-02-22 03:43:29,15.08839976,0.0001135,53.2167,283.7441,86.1761,273.9361,2.8624e-05,1.68e-06,0.0,0 STARLINK-5213,1 54093U 22136AU  23053.15520011  .00000168  00000-0  28624-4 0  9994,2 54093  53.2167 283.7441 0001135  86.1761 273.9361 15.08839976 19181,6917.88,95.438,540.531,538.96,0.0
54093.0,STARLINK-5213,PAYLOAD,2023-02-22 18:01:58,15.08823128,0.0001132,53.2168,281.0692,88.6417,271.4705,-2.4706e-05,-6.81e-06,0.0,0 STARLINK-5213,1 54093U 22136AU  23053.75137545 -.00000681  00000-0 -24706-4 0  9995,2 54093  53.2168 281.0692 0001132  88.6417 271.4705 15.08823128 19742,6917.932,95.439,540.58,539.014,0.0
54093.0,STARLINK-5213,PAYLOAD,2023-02-22 21:12:45,15.08821632,0.0001138,53.2168,280.4744,88.3327,271.7796,-4.7367e-05,-1.041e-05,0.0,0 STARLINK-5213,1 54093U 22136AU  23053.88385795 -.00001041  00000-0 -47367-4 0  9990,2 54093  53.2168 280.4744 0001138  88.3327 271.7796 15.08821632 19297,6917.937,95.439,540.589,539.014,0.0
54093.0,STARLINK-5213,PAYLOAD,2023-02-23 01:58:54,15.08828236,0.0001107,53.2167,279.5817,90.2416,269.8703,-5.753e-05,-1.203e-05,0.0,0 STARLINK-5213,1 54093U 22136AU  23054.08257515 -.00001203  00000-0 -57530-4 0  9994,2 54093  53.2167 279.5817 0001107  90.2416 269.8703 15.08828236 19320,6917.916,95.438,540.547,539.016,0.0
54093.0,STARLINK-5213,PAYLOAD,2023-02-23 21:03:31,15.08843954,9.21e-05,53.2163,276.0127,78.9443,281.1652,0.00014965,2.095e-05,0.0,0 STARLINK-5213,1 54093U 22136AU  23054.87744277  .00002095  00000-0  14965-3 0  9999,2 54093  53.2163 276.0127 0000921  78.9443 281.1652 15.08843954 19445,6917.868,95.437,540.37,539.096,0.0
54093.0,STARLINK-5213,PAYLOAD,2023-02-24 00:14:17,15.08846342,0.0001002,53.2163,275.418,82.3296,277.781,0.00022098,3.231e-05,0.0,0 STARLINK-5213,1 54093U 22136AU  23055.00992127  .00003231  00000-0  22098-3 0  9993,2 54093  53.2163 275.4180 0001002  82.3296 277.7810 15.08846342 19938,6917.861,95.437,540.419,539.033,0.0
54093.0,STARLINK-5213,PAYLOAD,2023-02-24 20:54:18,15.08849694,9.79e-05,53.2154,271.5525,82.7158,277.3945,0.0003989,6.068e-05,0.0,0 STARLINK-5213,1 54093U 22136AU  23055.87104433  .00006068  00000-0  39890-3 0  9992,2 54093  53.2154 271.5525 0000979  82.7158 277.3945 15.08849694 19591,6917.851,95.437,540.393,539.039,0.0
54093.0,STARLINK-5213,PAYLOAD,2023-02-25 00:05:04,15.088424,0.0001107,53.2155,270.9574,83.538,276.5738,0.00073355,0.00011407,0.0,0 STARLINK-5213,1 54093U 22136AU  23056.00352906  .00011407  00000-0  73355-3 0  9995,2 54093  53.2155 270.9574 0001107  83.5380 276.5738 15.08842400 20084,6917.873,95.437,540.504,538.972,0.0
54093.0,STARLINK-5213,PAYLOAD,2023-02-25 01:40:27,15.08856158,0.0001047,53.2154,270.6602,81.1817,278.9294,0.00044394,6.788e-05,0.0,0 STARLINK-5213,1 54093U 22136AU  23056.06976121  .00006788  00000-0  44394-3 0  9999,2 54093  53.2154 270.6602 0001047  81.1817 278.9294 15.08856158 20093,6917.831,95.437,540.42,538.972,0.0
54093.0,STARLINK-5213,PAYLOAD,2023-02-25 17:34:18,15.08845529,8.57e-05,53.2152,267.6866,89.9551,270.1539,-2.012e-05,-6.08e-06,0.0,0 STARLINK-5213,1 54093U 22136AU  23056.73216279 -.00000608  00000-0 -20120-4 0  9993,2 54093  53.2152 267.6866 0000857  89.9551 270.1539 15.08845529 20195,6917.863,95.437,540.321,539.136,0.0
54093.0,STARLINK-5213,PAYLOAD,2023-02-25 20:45:04,15.08848552,0.0001097,53.2155,267.0922,105.9459,254.1654,1.9167e-05,1.7e-07,0.0,0 STARLINK-5213,1 54093U 22136AU  23056.86464051  .00000017  00000-0  19167-4 0  9991,2 54093  53.2155 267.0922 0001097 105.9459 254.1654 15.08848552 19746,6917.854,95.437,540.478,538.96,0.0
54093.0,STARLINK-5213,PAYLOAD,2023-02-26 01:31:14,15.08853136,9.16e-05,53.215,266.1995,93.1427,266.967,8.6072e-05,1.083e-05,0.0,0 STARLINK-5213,1 54093U 22136AU  23057.06335695  .00001083  00000-0  86072-4 0  9998,2 54093  53.2150 266.1995 0000916  93.1427 266.9670 15.08853136 20243,6917.84,95.437,540.339,539.072,0.0
54093.0,STARLINK-5213,PAYLOAD,2023-02-26 14:14:19,15.0885006,0.0001035,53.2154,263.8203,87.6316,272.4795,4.9009e-05,4.92e-06,0.0,0 STARLINK-5213,1 54093U 22136AU  23057.59327724  .00000492  00000-0  49009-4 0  9992,2 54093  53.2154 263.8203 0001035  87.6316 272.4795 15.08850060 19859,6917.85,95.437,540.431,538.999,0.0
54093.0,STARLINK-5213,PAYLOAD,2023-02-26 20:35:51,15.08856495,0.0001032,53.2155,262.6314,94.0307,266.0803,0.00021975,3.213e-05,0.0,0 STARLINK-5213,1 54093U 22136AU  23057.85823266  .00003213  00000-0  21975-3 0  9998,2 54093  53.2155 262.6314 0001032  94.0307 266.0803 15.08856495 19890,6917.83,95.437,540.409,538.981,0.0
54093.0,STARLINK-5213,PAYLOAD,2023-02-27 06:08:10,15.08844171,8.63e-05,53.2158,260.8464,95.3642,264.7449,0.00012445,1.694e-05,0.0,0 STARLINK-5213,1 54093U 22136AU  23058.25567493  .00001694  00000-0  12445-3 0  9993,2 54093  53.2158 260.8464 0000863  95.3642 264.7449 15.08844171 20426,6917.868,95.437,540.33,539.136,0.0
54093.0,STARLINK-5213,PAYLOAD,2023-02-27 20:26:38,15.08853891,0.00011,53.2158,258.1716,91.7475,268.3643,0.00031164,4.677e-05,0.0,0 STARLINK-5213,1 54093U 22136AU  23058.85183188  .00004677  00000-0  31164-3 0  9997,2 54093  53.2158 258.1716 0001100  91.7475 268.3643 15.08853891 20048,6917.838,95.437,540.464,538.942,0.0
54093.0,STARLINK-5213,PAYLOAD,2023-02-28 05:58:57,15.08830598,0.000163,53.2156,256.3866,84.6,275.5178,-2.9775e-05,-7.62e-06,0.0,0 STARLINK-5213,1 54093U 22136AU  23059.24927956 -.00000762  00000-0 -29775-4 0  9999,2 54093  53.2156 256.3866 0001630  84.6000 275.5178 15.08830598 20575,6917.909,95.438,540.902,538.647,0.0
54093.0,STARLINK-5213,PAYLOAD,2023-02-28 20:17:26,15.08822396,8.76e-05,53.2149,253.7105,91.4832,268.626,0.00072078,0.00011196,0.0,0 STARLINK-5213,1 54093U 22136AU  23059.84544494  .00011196  00000-0  72078-3 0  9991,2 54093  53.2149 253.7105 0000876  91.4832 268.6260 15.08822396 20194,6917.934,95.439,540.405,539.193,0.0
54093.0,STARLINK-5213,PAYLOAD,2023-03-01 21:43:36,15.08850697,8.62e-05,53.2145,248.9523,95.7612,264.3479,0.00089066,0.00013919,0.0,0 STARLINK-5213,1 54093U 22136AU  23060.90528660  .00013919  00000-0  89066-3 0  9997,2 54093  53.2145 248.9523 0000862  95.7612 264.3479 15.08850697 20356,6917.848,95.437,540.309,539.116,0.0
